[Satellite]
VERSION=1.1
NAME=ASTRA 2F
NICKNAME=ASTRA 2F
TLE1=1 38778U 12051A   15055.09406715  .00000124  00000-0  00000+0 0  9996
TLE2=2 38778   0.0432 242.3638 0003348  23.9709 309.3333  1.00271153  8866
